[{"OBJECT_NAME":"INTELSAT 23 (IS-23)","OBJECT_ID":"2012-057A","EPOCH":"2026-03-04T08:14:38.476896","MEAN_MOTION":1.00270663,"ECCENTRICITY":0.00012067,"INCLINATION":0.054,"RA_OF_ASC_NODE":264.4267,"ARG_OF_PERICENTER":79.2529,"MEAN_ANOMALY":249.0735,"EPHEMERIS_TYPE":0,"CLASSIFICATION_TYPE":"U","NORAD_CAT_ID":38867,"ELEMENT_SET_NO":999,"REV_AT_EPOCH":4890,"BSTAR":0,"MEAN_MOTION_DOT":-2.97e-6,"MEAN_MOTION_DDOT":0},{"OBJECT_NAME":"FM-6","OBJECT_ID":"2013-058A","EPOCH":"2026-03-04T09:57:38.664576","MEAN_MOTION":1.00269003,"ECCENTRICITY":0.000287,"INCLINATION":0.0228,"RA_OF_ASC_NODE":128.3001,"ARG_OF_PERICENTER":54.4567,"MEAN_ANOMALY":12.6183,"EPHEMERIS_TYPE":0,"CLASSIFICATION_TYPE":"U","NORAD_CAT_ID":39360,"ELEMENT_SET_NO":999,"REV_AT_EPOCH":4502,"BSTAR":0,"MEAN_MOTION_DOT":-2.8e-7,"MEAN_MOTION_DDOT":0},{"OBJECT_NAME":"INTELSAT 30 (IS-30)","OBJECT_ID":"2014-062A","EPOCH":"2026-03-04T15:03:46.888128","MEAN_MOTION":1.00270867,"ECCENTRICITY":0.0001316,"INCLINATION":0.0176,"RA_OF_ASC_NODE":82.5699,"ARG_OF_PERICENTER":24.5193,"MEAN_ANOMALY":186.1767,"EPHEMERIS_TYPE":0,"CLASSIFICATION_TYPE":"U","NORAD_CAT_ID":40271,"ELEMENT_SET_NO":999,"REV_AT_EPOCH":574,"BSTAR":0,"MEAN_MOTION_DOT":-1.61e-6,"MEAN_MOTION_DDOT":0},{"OBJECT_NAME":"DIRECTV 14","OBJECT_ID":"2014-078B","EPOCH":"2026-03-04T08:33:38.625984","MEAN_MOTION":1.00276103,"ECCENTRICITY":2.588e-5,"INCLINATION":0.0203,"RA_OF_ASC_NODE":123.6906,"ARG_OF_PERICENTER":52.3431,"MEAN_ANOMALY":15.2398,"EPHEMERIS_TYPE":0,"CLASSIFICATION_TYPE":"U","NORAD_CAT_ID":40333,"ELEMENT_SET_NO":999,"REV_AT_EPOCH":4099,"BSTAR":0,"MEAN_MOTION_DOT":-1.38e-6,"MEAN_MOTION_DDOT":0},{"OBJECT_NAME":"DIRECTV 15","OBJECT_ID":"2015-026A","EPOCH":"2026-03-04T08:33:38.625984","MEAN_MOTION":1.00270982,"ECCENTRICITY":6.213e-5,"INCLINATION":0.0188,"RA_OF_ASC_NODE":106.7155,"ARG_OF_PERICENTER":122.0311,"MEAN_ANOMALY":318.8873,"EPHEMERIS_TYPE":0,"CLASSIFICATION_TYPE":"U","NORAD_CAT_ID":40663,"ELEMENT_SET_NO":999,"REV_AT_EPOCH":3941,"BSTAR":0,"MEAN_MOTION_DOT":-1.14e-6,"MEAN_MOTION_DDOT":0},{"OBJECT_NAME":"SKY MEXICO-1","OBJECT_ID":"2015-026B","EPOCH":"2026-03-04T08:17:38.511168","MEAN_MOTION":1.00269765,"ECCENTRICITY":0.00022389,"INCLINATION":0.0213,"RA_OF_ASC_NODE":129.4032,"ARG_OF_PERICENTER":232.9325,"MEAN_ANOMALY":205.3624,"EPHEMERIS_TYPE":0,"CLASSIFICATION_TYPE":"U","NORAD_CAT_ID":40664,"ELEMENT_SET_NO":999,"REV_AT_EPOCH":3940,"BSTAR":0,"MEAN_MOTION_DOT":-2.46e-6,"MEAN_MOTION_DDOT":0},{"OBJECT_NAME":"INTELSAT 34 (IS-34)","OBJECT_ID":"2015-039A","EPOCH":"2026-03-04T08:14:38.476896","MEAN_MOTION":1.00270789,"ECCENTRICITY":5.45e-6,"INCLINATION":0.0285,"RA_OF_ASC_NODE":268.5447,"ARG_OF_PERICENTER":238.6696,"MEAN_ANOMALY":83.0445,"EPHEMERIS_TYPE":0,"CLASSIFICATION_TYPE":"U","NORAD_CAT_ID":40874,"ELEMENT_SET_NO":999,"REV_AT_EPOCH":3857,"BSTAR":0,"MEAN_MOTION_DOT":-2.97e-6,"MEAN_MOTION_DDOT":0},{"OBJECT_NAME":"INTELSAT 31 (IS-31)","OBJECT_ID":"2016-035A","EPOCH":"2026-03-04T15:03:46.888128","MEAN_MOTION":1.0027069,"ECCENTRICITY":0.0001729,"INCLINATION":0.0381,"RA_OF_ASC_NODE":249.4491,"ARG_OF_PERICENTER":348.0097,"MEAN_ANOMALY":55.802,"EPHEMERIS_TYPE":0,"CLASSIFICATION_TYPE":"U","NORAD_CAT_ID":41581,"ELEMENT_SET_NO":999,"REV_AT_EPOCH":3563,"BSTAR":0,"MEAN_MOTION_DOT":-1.61e-6,"MEAN_MOTION_DDOT":0},{"OBJECT_NAME":"INTELSAT 36 (IS-36)","OBJECT_ID":"2016-053A","EPOCH":"2026-03-04T15:12:23.091840","MEAN_MOTION":1.00270662,"ECCENTRICITY":0.0001229,"INCLINATION":0.0191,"RA_OF_ASC_NODE":91.4653,"ARG_OF_PERICENTER":233.1456,"MEAN_ANOMALY":134.3463,"EPHEMERIS_TYPE":0,"CLASSIFICATION_TYPE":"U","NORAD_CAT_ID":41747,"ELEMENT_SET_NO":999,"REV_AT_EPOCH":3491,"BSTAR":0,"MEAN_MOTION_DOT":-3.5e-7,"MEAN_MOTION_DDOT":0},{"OBJECT_NAME":"INTELSAT 32E (IS-32E)","OBJECT_ID":"2017-007B","EPOCH":"2026-03-04T08:06:38.530080","MEAN_MOTION":1.00269658,"ECCENTRICITY":3.869e-5,"INCLINATION":0.0172,"RA_OF_ASC_NODE":127.0773,"ARG_OF_PERICENTER":135.5633,"MEAN_ANOMALY":337.9102,"EPHEMERIS_TYPE":0,"CLASSIFICATION_TYPE":"U","NORAD_CAT_ID":41945,"ELEMENT_SET_NO":999,"REV_AT_EPOCH":3317,"BSTAR":0,"MEAN_MOTION_DOT":-2.81e-6,"MEAN_MOTION_DDOT":0},{"OBJECT_NAME":"INTELSAT 35E (IS-35E)","OBJECT_ID":"2017-041A","EPOCH":"2026-03-04T10:52:38.525952","MEAN_MOTION":1.00271013,"ECCENTRICITY":0.0002227,"INCLINATION":0.0283,"RA_OF_ASC_NODE":246.0554,"ARG_OF_PERICENTER":97.1035,"MEAN_ANOMALY":307.6751,"EPHEMERIS_TYPE":0,"CLASSIFICATION_TYPE":"U","NORAD_CAT_ID":42818,"ELEMENT_SET_NO":999,"REV_AT_EPOCH":3176,"BSTAR":0,"MEAN_MOTION_DOT":-2.5e-6,"MEAN_MOTION_DDOT":0},{"OBJECT_NAME":"INTELSAT 37E (IS-37E)","OBJECT_ID":"2017-059A","EPOCH":"2026-03-04T10:44:38.580000","MEAN_MOTION":1.00269285,"ECCENTRICITY":0.0002157,"INCLINATION":0.0261,"RA_OF_ASC_NODE":148.6626,"ARG_OF_PERICENTER":199.4105,"MEAN_ANOMALY":317.3002,"EPHEMERIS_TYPE":0,"CLASSIFICATION_TYPE":"U","NORAD_CAT_ID":42950,"ELEMENT_SET_NO":999,"REV_AT_EPOCH":3101,"BSTAR":0,"MEAN_MOTION_DOT":0,"MEAN_MOTION_DDOT":0},{"OBJECT_NAME":"AZERSPACE 2 (IS-38)","OBJECT_ID":"2018-074A","EPOCH":"2026-03-04T07:10:38.707968","MEAN_MOTION":1.00270465,"ECCENTRICITY":0.00014551,"INCLINATION":0.0251,"RA_OF_ASC_NODE":147.3552,"ARG_OF_PERICENTER":209.1926,"MEAN_ANOMALY":318.2837,"EPHEMERIS_TYPE":0,"CLASSIFICATION_TYPE":"U","NORAD_CAT_ID":43632,"ELEMENT_SET_NO":999,"REV_AT_EPOCH":2739,"BSTAR":0,"MEAN_MOTION_DOT":0,"MEAN_MOTION_DDOT":0},{"OBJECT_NAME":"HORIZONS-3E","OBJECT_ID":"2018-074B","EPOCH":"2026-03-04T14:36:38.883168","MEAN_MOTION":1.00271811,"ECCENTRICITY":5.83e-5,"INCLINATION":0.0157,"RA_OF_ASC_NODE":326.7193,"ARG_OF_PERICENTER":8.9773,"MEAN_ANOMALY":214.7868,"EPHEMERIS_TYPE":0,"CLASSIFICATION_TYPE":"U","NORAD_CAT_ID":43633,"ELEMENT_SET_NO":999,"REV_AT_EPOCH":2729,"BSTAR":0,"MEAN_MOTION_DOT":-4.2e-7,"MEAN_MOTION_DDOT":0},{"OBJECT_NAME":"AT&T T-16","OBJECT_ID":"2019-034A","EPOCH":"2026-03-04T08:33:38.625984","MEAN_MOTION":1.00271781,"ECCENTRICITY":9.915e-5,"INCLINATION":0.024,"RA_OF_ASC_NODE":100.5815,"ARG_OF_PERICENTER":73.3662,"MEAN_ANOMALY":15.6868,"EPHEMERIS_TYPE":0,"CLASSIFICATION_TYPE":"U","NORAD_CAT_ID":44333,"ELEMENT_SET_NO":999,"REV_AT_EPOCH":2458,"BSTAR":0,"MEAN_MOTION_DOT":-1.27e-6,"MEAN_MOTION_DDOT":0},{"OBJECT_NAME":"INTELSAT 39 (IS-39)","OBJECT_ID":"2019-049B","EPOCH":"2026-03-04T19:02:29.384160","MEAN_MOTION":1.0026933,"ECCENTRICITY":6.96e-5,"INCLINATION":0.0245,"RA_OF_ASC_NODE":152.2779,"ARG_OF_PERICENTER":352.6083,"MEAN_ANOMALY":5.2209,"EPHEMERIS_TYPE":0,"CLASSIFICATION_TYPE":"U","NORAD_CAT_ID":44476,"ELEMENT_SET_NO":999,"REV_AT_EPOCH":2408,"BSTAR":0,"MEAN_MOTION_DOT":0,"MEAN_MOTION_DDOT":0},{"OBJECT_NAME":"GALAXY 30 (G-30)","OBJECT_ID":"2020-056C","EPOCH":"2026-03-04T11:51:38.736576","MEAN_MOTION":1.00272712,"ECCENTRICITY":0.0002216,"INCLINATION":0.0238,"RA_OF_ASC_NODE":163.2602,"ARG_OF_PERICENTER":186.8316,"MEAN_ANOMALY":225.0757,"EPHEMERIS_TYPE":0,"CLASSIFICATION_TYPE":"U","NORAD_CAT_ID":46114,"ELEMENT_SET_NO":999,"REV_AT_EPOCH":2024,"BSTAR":0,"MEAN_MOTION_DOT":0,"MEAN_MOTION_DDOT":0}]
