INTELSAT 23 (IS-23)     
1 38867U 12057A   26063.34350089 -.00000297  00000+0  00000+0 0  9993
2 38867   0.0540 264.4267 0001206  79.2529 249.0735  1.00270663 48903
FM-6                    
1 39360U 13058A   26063.41503084 -.00000028  00000+0  00000+0 0  9999
2 39360   0.0228 128.3001 0002870  54.4567  12.6183  1.00269003 45021
INTELSAT 30 (IS-30)     
1 40271U 14062A   26063.62762602 -.00000161  00000+0  00000+0 0  9992
2 40271   0.0176  82.5699 0001316  24.5193 186.1767  1.00270867  5747
DIRECTV 14              
1 40333U 14078B   26063.35669706 -.00000138  00000+0  00000+0 0  9993
2 40333   0.0203 123.6906 0000258  52.3431  15.2398  1.00276103 40990
DIRECTV 15              
1 40663U 15026A   26063.35669706 -.00000114  00000+0  00000+0 0  9997
2 40663   0.0188 106.7155 0000621 122.0311 318.8873  1.00270982 39416
SKY MEXICO-1            
1 40664U 15026B   26063.34558462 -.00000246  00000+0  00000+0 0  9999
2 40664   0.0213 129.4032 0002238 232.9325 205.3624  1.00269765 39404
INTELSAT 34 (IS-34)     
1 40874U 15039A   26063.34350089 -.00000297  00000+0  00000+0 0  9997
2 40874   0.0285 268.5447 0000054 238.6696  83.0445  1.00270789 38576
INTELSAT 31 (IS-31)     
1 41581U 16035A   26063.62762602 -.00000161  00000+0  00000+0 0  9999
2 41581   0.0381 249.4491 0001729 348.0097  55.8020  1.00270690 35638
INTELSAT 36 (IS-36)     
1 41747U 16053A   26063.63360060 -.00000035  00000+0  00000+0 0  9996
2 41747   0.0191  91.4653 0001229 233.1456 134.3463  1.00270662 34917
INTELSAT 32E (IS-32E)   
1 41945U 17007B   26063.33794595 -.00000281  00000+0  00000+0 0  9990
2 41945   0.0172 127.0773 0000386 135.5633 337.9102  1.00269658 33171
INTELSAT 35E (IS-35E)   
1 42818U 17041A   26063.45322368 -.00000250  00000+0  00000+0 0  9992
2 42818   0.0283 246.0554 0002227  97.1035 307.6751  1.00271013 31763
INTELSAT 37E (IS-37E)   
1 42950U 17059A   26063.44766875  .00000000  00000+0  00000+0 0  9994
2 42950   0.0261 148.6626 0002157 199.4105 317.3002  1.00269285 31012
AZERSPACE 2 (IS-38)     
1 43632U 18074A   26063.29905912  .00000000  00000+0  00000+0 0  9990
2 43632   0.0251 147.3552 0001455 209.1926 318.2837  1.00270465 27397
HORIZONS-3E             
1 43633U 18074B   26063.60878337 -.00000042  00000+0  00000+0 0  9993
2 43633   0.0157 326.7193 0000583   8.9773 214.7868  1.00271811 27292
AT&T T-16               
1 44333U 19034A   26063.35669706 -.00000127  00000+0  00000+0 0  9992
2 44333   0.0240 100.5815 0000991  73.3662  15.6868  1.00271781 24581
INTELSAT 39 (IS-39)     
1 44476U 19049B   26063.79339565  .00000000  00000+0  00000+0 0  9990
2 44476   0.0245 152.2779 0000696 352.6083   5.2209  1.00269330 24085
GALAXY 30 (G-30)        
1 46114U 20056C   26063.49419834  .00000000  00000+0  00000+0 0  9996
2 46114   0.0238 163.2602 0002216 186.8316 225.0757  1.00272712 20243
